CCSDS_OEM_VERS = 1.0
CREATION_DATE  = 2017-05-11T11:50:02
ORIGINATOR     = GMAT USER

META_START
OBJECT_NAME          = MOPSSat_alt_35785_km_RAAN_270_015
OBJECT_ID            = SatId
CENTER_NAME          = Earth
REF_FRAME            = EME2000
TIME_SYSTEM          = UTC
START_TIME           = 2017-01-01T00:00:00.000
USEABLE_START_TIME   = 2017-01-01T00:00:00.000
USEABLE_STOP_TIME    = 2017-01-02T00:00:00.000
STOP_TIME            = 2017-01-02T00:00:00.000
INTERPOLATION        = Lagrange
INTERPOLATION_DEGREE = 7 
META_STOP


                                                                                   

2017-01-01T16:30:00.000  -3.914419232488657e+04   1.565810221244789e+04   1.228132587620688e+00  -1.142198884631065e+00  -2.854979700859814e+00   1.283688482267554e-04
2017-01-01T16:30:10.000  -3.915560390162298e+04   1.562954825398580e+04   1.229416101464178e+00  -1.140116384504724e+00  -2.855811795919438e+00   1.283339092485747e-04
2017-01-01T16:30:20.000  -3.916699465044077e+04   1.560098598188109e+04   1.230699265516568e+00  -1.138033278103485e+00  -2.856642371784556e+00   1.282988874217316e-04
2017-01-01T16:30:30.000  -3.917836456528232e+04   1.557241541132776e+04   1.231982078949391e+00  -1.135949566535839e+00  -2.857471428013568e+00   1.282637827520085e-04
2017-01-01T16:30:40.000  -3.918971364009454e+04   1.554383655753890e+04   1.233264540933561e+00  -1.133865250911671e+00  -2.858298964165206e+00   1.282285952452536e-04
2017-01-01T16:30:50.000  -3.920104186872260e+04   1.551524943602266e+04   1.234546650627082e+00  -1.131780332362383e+00  -2.859124979790773e+00   1.281933249077311e-04
2017-01-01T16:31:00.000  -3.921234924505411e+04   1.548665406221098e+04   1.235828407191618e+00  -1.129694812013821e+00  -2.859949474444684e+00   1.281579717456547e-04
2017-01-01T16:31:10.000  -3.922363576296104e+04   1.545805045160852e+04   1.237109809785836e+00  -1.127608690997132e+00  -2.860772447680203e+00   1.281225357653731e-04
2017-01-01T16:31:20.000  -3.923490141655858e+04   1.542943861913630e+04   1.238390857594808e+00  -1.125521970400898e+00  -2.861593899068334e+00   1.280870169725578e-04
2017-01-01T16:31:30.000  -3.924614619994539e+04   1.540081857978964e+04   1.239671549800534e+00  -1.123434651319119e+00  -2.862413828178876e+00   1.280514153730165e-04
2017-01-01T16:31:40.000  -3.925737010727078e+04   1.537219034846832e+04   1.240951885589554e+00  -1.121346734838827e+00  -2.863232234585322e+00   1.280157309724841e-04
2017-01-01T16:31:50.000  -3.926857313255325e+04   1.534355394043285e+04   1.242231864132466e+00  -1.119258222073363e+00  -2.864049117851629e+00   1.279799637771812e-04
2017-01-01T16:32:00.000  -3.927975526983068e+04   1.531490937092810e+04   1.243511484600834e+00  -1.117169114134925e+00  -2.864864477543161e+00   1.279441137933550e-04
2017-01-01T16:32:10.000  -3.929091651312659e+04   1.528625665526726e+04   1.244790746163417e+00  -1.115079412140698e+00  -2.865678313224249e+00   1.279081810273815e-04
2017-01-01T16:32:20.000  -3.930205685646086e+04   1.525759580880954e+04   1.246069647987214e+00  -1.112989117211219e+00  -2.866490624458943e+00   1.278721654857464e-04
2017-01-01T16:32:30.000  -3.931317629385937e+04   1.522892684693118e+04   1.247348189238721e+00  -1.110898230468264e+00  -2.867301410811746e+00   1.278360671750002e-04
2017-01-01T16:32:40.000  -3.932427481935828e+04   1.520024978501505e+04   1.248626369084392e+00  -1.108806753034101e+00  -2.868110671847906e+00   1.277998861017478e-04
2017-01-01T16:32:50.000  -3.933535242704445e+04   1.517156463834850e+04   1.249904186695224e+00  -1.106714686024024e+00  -2.868918407136364e+00   1.277636222725172e-04
2017-01-01T16:33:00.000  -3.934640911102796e+04   1.514287142219128e+04   1.251181641243696e+00  -1.104622030551315e+00  -2.869724616247765e+00   1.277272756938469e-04
2017-01-01T16:33:10.000  -3.935744486544257e+04   1.511417015177563e+04   1.252458731903773e+00  -1.102528787727253e+00  -2.870529298754468e+00   1.276908463722847e-04
2017-01-01T16:33:20.000  -3.936845968447089e+04   1.508546084223758e+04   1.253735457853933e+00  -1.100434958656096e+00  -2.871332454232410e+00   1.276543343143023e-04
2017-01-01T16:33:30.000  -3.937945356230580e+04   1.505674350871975e+04   1.255011818272618e+00  -1.098340544442583e+00  -2.872134082258265e+00   1.276177395264232e-04
2017-01-01T16:33:40.000  -3.939042649314651e+04   1.502801816638180e+04   1.256287812337769e+00  -1.096245546192696e+00  -2.872934182409179e+00   1.275810620152388e-04
2017-01-01T16:33:50.000  -3.940137847118638e+04   1.499928483042850e+04   1.257563439225540e+00  -1.094149965015709e+00  -2.873732754261865e+00   1.275443017874350e-04
2017-01-01T16:34:00.000  -3.941230949060572e+04   1.497054351613335e+04   1.258838698109302e+00  -1.092053802025904e+00  -2.874529797392090e+00   1.275074588498321e-04
2017-01-01T16:34:10.000  -3.942321954560326e+04   1.494179423875372e+04   1.260113588163383e+00  -1.089957058336388e+00  -2.875325311376960e+00   1.274705332092727e-04
2017-01-01T16:34:20.000  -3.943410863025455e+04   1.491303701391048e+04   1.261388108546311e+00  -1.087859735086781e+00  -2.876119295784608e+00   1.274335248731199e-04
2017-01-01T16:34:30.000  -3.944497673868409e+04   1.488427185712820e+04   1.262662258421126e+00  -1.085761833409674e+00  -2.876911750186730e+00   1.273964338486559e-04
2017-01-01T16:34:40.000  -3.945582386500100e+04   1.485549878400598e+04   1.263936036947830e+00  -1.083663354443100e+00  -2.877702674153903e+00   1.273592601433052e-04
2017-01-01T16:34:50.000  -3.946665000354894e+04   1.482671780955573e+04   1.265209443312686e+00  -1.081564299282261e+00  -2.878492067273810e+00   1.273220037637756e-04
2017-01-01T16:35:00.000  -3.947745514865663e+04   1.479792894886216e+04   1.266482476698985e+00  -1.079464669027672e+00  -2.879279929133043e+00   1.272846647169143e-04
2017-01-01T16:35:10.000  -3.948823929469485e+04   1.476913221693339e+04   1.267755136293678e+00  -1.077364464774258e+00  -2.880066259321259e+00   1.272472430095145e-04
2017-01-01T16:35:20.000  -3.949900243593383e+04   1.474032762907276e+04   1.269027421270844e+00  -1.075263687638479e+00  -2.880851057420789e+00   1.272097386487925e-04
2017-01-01T16:35:30.000  -3.950974456664991e+04   1.471151520060308e+04   1.270299330803978e+00  -1.073162338738212e+00  -2.881634323014406e+00   1.271721516420364e-04
2017-01-01T16:35:40.000  -3.952046568112438e+04   1.468269494686621e+04   1.271570864065974e+00  -1.071060419192722e+00  -2.882416055685250e+00   1.271344819966020e-04
2017-01-01T16:35:50.000  -3.953116577354326e+04   1.465386688350113e+04   1.272842020216946e+00  -1.068957930142948e+00  -2.883196255009508e+00   1.270967297202832e-04
2017-01-01T16:36:00.000  -3.954184483813339e+04   1.462503102606980e+04   1.274112798420647e+00  -1.066854872724204e+00  -2.883974920566352e+00   1.270588948208167e-04
2017-01-01T16:36:10.000  -3.955250286910847e+04   1.459618739020432e+04   1.275383197838004e+00  -1.064751248076928e+00  -2.884752051933993e+00   1.270209773060761e-04
2017-01-01T16:36:20.000  -3.956313986090978e+04   1.456733599095619e+04   1.276653217655778e+00  -1.062647057299206e+00  -2.885527648707237e+00   1.269829771832188e-04
2017-01-01T16:36:30.000  -3.957375580796522e+04   1.453847684344699e+04   1.277922857057898e+00  -1.060542301494239e+00  -2.886301710479915e+00   1.269448944595384e-04
2017-01-01T16:36:40.000  -3.958435070474423e+04   1.450960996272144e+04   1.279192115231946e+00  -1.058436981759620e+00  -2.887074236848887e+00   1.269067291422736e-04
2017-01-01T16:36:50.000  -3.959492454561763e+04   1.448073536412016e+04   1.280460991352671e+00  -1.056331099214522e+00  -2.887845227403825e+00   1.268684812390899e-04
2017-01-01T16:37:00.000  -3.960547732496248e+04   1.445185306300317e+04   1.281729484594244e+00  -1.054224654979535e+00  -2.888614681734858e+00   1.268301507577249e-04
2017-01-01T16:37:10.000  -3.961600903716098e+04   1.442296307474950e+04   1.282997594130241e+00  -1.052117650176633e+00  -2.889382599432485e+00   1.267917377059845e-04
2017-01-01T16:37:20.000  -3.962651967650189e+04   1.439406541503597e+04   1.284265319121497e+00  -1.050010085949509e+00  -2.890148980080402e+00   1.267532420921230e-04
2017-01-01T16:37:30.000  -3.963700923731441e+04   1.436516009946203e+04   1.285532658732485e+00  -1.047901963436212e+00  -2.890913823265242e+00   1.267146639243347e-04
2017-01-01T16:37:40.000  -3.964747771391494e+04   1.433624714369746e+04   1.286799612124859e+00  -1.045793283779921e+00  -2.891677128572721e+00   1.266760032109532e-04
2017-01-01T16:37:50.000  -3.965792510084379e+04   1.430732656282986e+04   1.288066178486044e+00  -1.043684048081355e+00  -2.892438895604863e+00   1.266372599595792e-04
2017-01-01T16:38:00.000  -3.966835139262820e+04   1.427839837201706e+04   1.289332357000647e+00  -1.041574257446355e+00  -2.893199123962760e+00   1.265984341779515e-04
2017-01-01T16:38:10.000  -3.967875658383653e+04   1.424946258633974e+04   1.290598146856920e+00  -1.039463912975132e+00  -2.893957813250490e+00   1.265595258737518e-04
2017-01-01T16:38:20.000  -3.968914066894048e+04   1.422051922117508e+04   1.291863547230323e+00  -1.037353015789526e+00  -2.894714963065085e+00   1.265205350550950e-04
2017-01-01T16:38:30.000  -3.969950364241805e+04   1.419156829191972e+04   1.293128557295743e+00  -1.035241567012792e+00  -2.895470573004042e+00   1.264814617301694e-04
2017-01-01T16:38:40.000  -3.970984549875253e+04   1.416260981398916e+04   1.294393176227479e+00  -1.033129567769562e+00  -2.896224642665244e+00   1.264423059072312e-04
2017-01-01T16:38:50.000  -3.972016623233576e+04   1.413364380309738e+04   1.295657403187130e+00  -1.031017019206234e+00  -2.896977171639903e+00   1.264030675949944e-04
2017-01-01T16:39:00.000  -3.973046583759943e+04   1.410467027488069e+04   1.296921237339927e+00  -1.028903922463546e+00  -2.897728159522144e+00   1.263637468021111e-04
